[
  {
    "OBJECT_NAME": "STARLINK-3176",
    "OBJECT_ID": "22005C",
    "EPOCH": "2025-11-11T02:55:37.298208",
    "MEAN_MOTION": 15.08842019,
    "ECCENTRICITY": 0.0001295,
    "INCLINATION": 53.2164,
    "RA_OF_ASC_NODE": 101.3903,
    "ARG_OF_PERICENTER": 89.6307,
    "MEAN_ANOMALY": 270.4834,
    "EPHEMERIS_TYPE": 0,
    "CLASSIFICATION_TYPE": "U",
    "NORAD_CAT_ID": 51106,
    "ELEMENT_SET_NO": 999,
    "REV_AT_EPOCH": 21097,
    "BSTAR": 8.7303e-05,
    "MEAN_MOTION_DOT": 1.102e-05,
    "MEAN_MOTION_DDOT": 0.0,
    "TLE_LINE1": "1 51106U 22005C   25315.12195947  .00001102  00000+0  87303-4 0  9994",
    "TLE_LINE2": "2 51106  53.2164 101.3903 0001295  89.6307 270.4834 15.08842019210978",
    "COMMENT": "Grouped by shell and plane from TLE"
  },
  {
    "OBJECT_NAME": "STARLINK-3362",
    "OBJECT_ID": "22005E",
    "EPOCH": "2025-11-11T03:22:07.714848",
    "MEAN_MOTION": 15.0883785,
    "ECCENTRICITY": 0.0002988,
    "INCLINATION": 53.2154,
    "RA_OF_ASC_NODE": 101.3089,
    "ARG_OF_PERICENTER": 92.2668,
    "MEAN_ANOMALY": 267.8667,
    "EPHEMERIS_TYPE": 0,
    "CLASSIFICATION_TYPE": "U",
    "NORAD_CAT_ID": 51108,
    "ELEMENT_SET_NO": 999,
    "REV_AT_EPOCH": 21098,
    "BSTAR": 3.748000000000001e-05,
    "MEAN_MOTION_DOT": 3.08e-06,
    "MEAN_MOTION_DDOT": 0.0,
    "TLE_LINE1": "1 51108U 22005E   25315.14036707  .00000308  00000+0  37480-4 0  9994",
    "TLE_LINE2": "2 51108  53.2154 101.3089 0002988  92.2668 267.8667 15.08837850210986",
    "COMMENT": "Grouped by shell and plane from TLE"
  },
  {
    "OBJECT_NAME": "STARLINK-3358",
    "OBJECT_ID": "22005F",
    "EPOCH": "2025-11-10T16:40:54.277824",
    "MEAN_MOTION": 15.08843626,
    "ECCENTRICITY": 0.0001444,
    "INCLINATION": 53.2151,
    "RA_OF_ASC_NODE": 103.2583,
    "ARG_OF_PERICENTER": 84.4267,
    "MEAN_ANOMALY": 275.689,
    "EPHEMERIS_TYPE": 0,
    "CLASSIFICATION_TYPE": "U",
    "NORAD_CAT_ID": 51109,
    "ELEMENT_SET_NO": 999,
    "REV_AT_EPOCH": 21068,
    "BSTAR": 0.00011273,
    "MEAN_MOTION_DOT": 1.507e-05,
    "MEAN_MOTION_DDOT": 0.0,
    "TLE_LINE1": "1 51109U 22005F   25314.69507266  .00001507  00000+0  11273-3 0  9990",
    "TLE_LINE2": "2 51109  53.2151 103.2583 0001444  84.4267 275.6890 15.08843626210688",
    "COMMENT": "Grouped by shell and plane from TLE"
  },
  {
    "OBJECT_NAME": "STARLINK-3344",
    "OBJECT_ID": "22005G",
    "EPOCH": "2025-11-10T09:36:59.577120",
    "MEAN_MOTION": 15.08854711,
    "ECCENTRICITY": 0.0001077,
    "INCLINATION": 53.2139,
    "RA_OF_ASC_NODE": 104.6096,
    "ARG_OF_PERICENTER": 105.3842,
    "MEAN_ANOMALY": 254.727,
    "EPHEMERIS_TYPE": 0,
    "CLASSIFICATION_TYPE": "U",
    "NORAD_CAT_ID": 51110,
    "ELEMENT_SET_NO": 999,
    "REV_AT_EPOCH": 21087,
    "BSTAR": 0.00054093,
    "MEAN_MOTION_DOT": 8.335e-05,
    "MEAN_MOTION_DDOT": 0.0,
    "TLE_LINE1": "1 51110U 22005G   25314.40068955  .00008335  00000+0  54093-3 0  9991",
    "TLE_LINE2": "2 51110  53.2139 104.6096 0001077 105.3842 254.7270 15.08854711210872",
    "COMMENT": "Grouped by shell and plane from TLE"
  },
  {
    "OBJECT_NAME": "STARLINK-3173",
    "OBJECT_ID": "22005H",
    "EPOCH": "2025-11-11T02:34:25.476384",
    "MEAN_MOTION": 15.08831371,
    "ECCENTRICITY": 0.0001432,
    "INCLINATION": 53.2155,
    "RA_OF_ASC_NODE": 101.4562,
    "ARG_OF_PERICENTER": 80.2505,
    "MEAN_ANOMALY": 279.8649,
    "EPHEMERIS_TYPE": 0,
    "CLASSIFICATION_TYPE": "U",
    "NORAD_CAT_ID": 51111,
    "ELEMENT_SET_NO": 999,
    "REV_AT_EPOCH": 21097,
    "BSTAR": 0.0,
    "MEAN_MOTION_DOT": -3.056e-05,
    "MEAN_MOTION_DDOT": 0.0,
    "TLE_LINE1": "1 51111U 22005H   25315.10723931 -.00003056  00000+0 -17404-3 0  9994",
    "TLE_LINE2": "2 51111  53.2155 101.4562 0001432  80.2505 279.8649 15.08831371210972",
    "COMMENT": "Grouped by shell and plane from TLE"
  },
  {
    "OBJECT_NAME": "STARLINK-3374",
    "OBJECT_ID": "22005J",
    "EPOCH": "2025-11-11T03:02:18.485376",
    "MEAN_MOTION": 15.08851507,
    "ECCENTRICITY": 0.0001527,
    "INCLINATION": 53.218,
    "RA_OF_ASC_NODE": 101.3438,
    "ARG_OF_PERICENTER": 92.2243,
    "MEAN_ANOMALY": 267.8924,
    "EPHEMERIS_TYPE": 0,
    "CLASSIFICATION_TYPE": "U",
    "NORAD_CAT_ID": 51112,
    "ELEMENT_SET_NO": 999,
    "REV_AT_EPOCH": 21098,
    "BSTAR": 0.0,
    "MEAN_MOTION_DOT": -1.641e-05,
    "MEAN_MOTION_DDOT": 0.0,
    "TLE_LINE1": "1 51112U 22005J   25315.12660284 -.00001641  00000+0 -85022-4 0  9998",
    "TLE_LINE2": "2 51112  53.2180 101.3438 0001527  92.2243 267.8924 15.08851507210986",
    "COMMENT": "Grouped by shell and plane from TLE"
  },
  {
    "OBJECT_NAME": "STARLINK-3372",
    "OBJECT_ID": "22005K",
    "EPOCH": "2025-11-11T02:50:19.295232",
    "MEAN_MOTION": 15.08842124,
    "ECCENTRICITY": 0.000124,
    "INCLINATION": 53.216,
    "RA_OF_ASC_NODE": 101.4069,
    "ARG_OF_PERICENTER": 88.5666,
    "MEAN_ANOMALY": 271.5469,
    "EPHEMERIS_TYPE": 0,
    "CLASSIFICATION_TYPE": "U",
    "NORAD_CAT_ID": 51113,
    "ELEMENT_SET_NO": 999,
    "REV_AT_EPOCH": 21097,
    "BSTAR": 9.2349e-05,
    "MEAN_MOTION_DOT": 1.182e-05,
    "MEAN_MOTION_DDOT": 0.0,
    "TLE_LINE1": "1 51113U 22005K   25315.11827888  .00001182  00000+0  92349-4 0  9991",
    "TLE_LINE2": "2 51113  53.2160 101.4069 0001240  88.5666 271.5469 15.08842124210975",
    "COMMENT": "Grouped by shell and plane from TLE"
  },
  {
    "OBJECT_NAME": "STARLINK-3375",
    "OBJECT_ID": "22005L",
    "EPOCH": "2025-11-11T03:16:48.527328",
    "MEAN_MOTION": 15.08859462,
    "ECCENTRICITY": 0.0001284,
    "INCLINATION": 53.2162,
    "RA_OF_ASC_NODE": 101.3259,
    "ARG_OF_PERICENTER": 96.895,
    "MEAN_ANOMALY": 263.2189,
    "EPHEMERIS_TYPE": 0,
    "CLASSIFICATION_TYPE": "U",
    "NORAD_CAT_ID": 51114,
    "ELEMENT_SET_NO": 999,
    "REV_AT_EPOCH": 21098,
    "BSTAR": 0.0,
    "MEAN_MOTION_DOT": -1.946e-05,
    "MEAN_MOTION_DDOT": 0.0,
    "TLE_LINE1": "1 51114U 22005L   25315.13667277 -.00001946  00000+0 -10415-3 0  9991",
    "TLE_LINE2": "2 51114  53.2162 101.3259 0001284  96.8950 263.2189 15.08859462210985",
    "COMMENT": "Grouped by shell and plane from TLE"
  },
  {
    "OBJECT_NAME": "STARLINK-3397",
    "OBJECT_ID": "22005M",
    "EPOCH": "2025-11-10T10:45:52.712928",
    "MEAN_MOTION": 15.08845275,
    "ECCENTRICITY": 0.0001382,
    "INCLINATION": 53.2163,
    "RA_OF_ASC_NODE": 104.413,
    "ARG_OF_PERICENTER": 90.5826,
    "MEAN_ANOMALY": 269.5325,
    "EPHEMERIS_TYPE": 0,
    "CLASSIFICATION_TYPE": "U",
    "NORAD_CAT_ID": 51115,
    "ELEMENT_SET_NO": 999,
    "REV_AT_EPOCH": 21087,
    "BSTAR": 0.00014272000000000002,
    "MEAN_MOTION_DOT": 1.984e-05,
    "MEAN_MOTION_DDOT": 0.0,
    "TLE_LINE1": "1 51115U 22005M   25314.44852677  .00001984  00000+0  14272-3 0  9990",
    "TLE_LINE2": "2 51115  53.2163 104.4130 0001382  90.5826 269.5325 15.08845275210877",
    "COMMENT": "Grouped by shell and plane from TLE"
  },
  {
    "OBJECT_NAME": "STARLINK-3243",
    "OBJECT_ID": "22005N",
    "EPOCH": "2025-11-10T20:35:28.093920",
    "MEAN_MOTION": 15.08822673,
    "ECCENTRICITY": 0.0001286,
    "INCLINATION": 53.2154,
    "RA_OF_ASC_NODE": 102.5472,
    "ARG_OF_PERICENTER": 90.5326,
    "MEAN_ANOMALY": 269.5813,
    "EPHEMERIS_TYPE": 0,
    "CLASSIFICATION_TYPE": "U",
    "NORAD_CAT_ID": 51116,
    "ELEMENT_SET_NO": 999,
    "REV_AT_EPOCH": 21093,
    "BSTAR": 0.00010953,
    "MEAN_MOTION_DOT": 1.455e-05,
    "MEAN_MOTION_DDOT": 0.0,
    "TLE_LINE1": "1 51116U 22005N   25314.85796405  .00001455  00000+0  10953-3 0  9997",
    "TLE_LINE2": "2 51116  53.2154 102.5472 0001286  90.5326 269.5813 15.08822673210930",
    "COMMENT": "Grouped by shell and plane from TLE"
  },
  {
    "OBJECT_NAME": "STARLINK-3391",
    "OBJECT_ID": "22005P",
    "EPOCH": "2025-11-10T19:41:03.933024",
    "MEAN_MOTION": 15.08847566,
    "ECCENTRICITY": 0.0001333,
    "INCLINATION": 53.2148,
    "RA_OF_ASC_NODE": 102.6345,
    "ARG_OF_PERICENTER": 91.9641,
    "MEAN_ANOMALY": 268.1504,
    "EPHEMERIS_TYPE": 0,
    "CLASSIFICATION_TYPE": "U",
    "NORAD_CAT_ID": 51117,
    "ELEMENT_SET_NO": 999,
    "REV_AT_EPOCH": 21093,
    "BSTAR": 9.6809e-05,
    "MEAN_MOTION_DOT": 1.253e-05,
    "MEAN_MOTION_DDOT": 0.0,
    "TLE_LINE1": "1 51117U 22005P   25314.82018441  .00001253  00000+0  96809-4 0  9993",
    "TLE_LINE2": "2 51117  53.2148 102.6345 0001333  91.9641 268.1504 15.08847566210932",
    "COMMENT": "Grouped by shell and plane from TLE"
  },
  {
    "OBJECT_NAME": "STARLINK-3394",
    "OBJECT_ID": "22005Q",
    "EPOCH": "2025-11-10T20:23:26.402496",
    "MEAN_MOTION": 15.08863533,
    "ECCENTRICITY": 0.0001237,
    "INCLINATION": 53.2163,
    "RA_OF_ASC_NODE": 102.612,
    "ARG_OF_PERICENTER": 85.087,
    "MEAN_ANOMALY": 275.0263,
    "EPHEMERIS_TYPE": 0,
    "CLASSIFICATION_TYPE": "U",
    "NORAD_CAT_ID": 51118,
    "ELEMENT_SET_NO": 999,
    "REV_AT_EPOCH": 21093,
    "BSTAR": 0.00022830000000000002,
    "MEAN_MOTION_DOT": 3.35e-05,
    "MEAN_MOTION_DDOT": 0.0,
    "TLE_LINE1": "1 51118U 22005Q   25314.84961114  .00003350  00000+0  22830-3 0  9992",
    "TLE_LINE2": "2 51118  53.2163 102.6120 0001237  85.0870 275.0263 15.08863533210933",
    "COMMENT": "Grouped by shell and plane from TLE"
  },
  {
    "OBJECT_NAME": "STARLINK-3398",
    "OBJECT_ID": "22005S",
    "EPOCH": "2025-11-10T16:31:41.667744",
    "MEAN_MOTION": 15.08845596,
    "ECCENTRICITY": 0.0001197,
    "INCLINATION": 53.2155,
    "RA_OF_ASC_NODE": 103.3446,
    "ARG_OF_PERICENTER": 91.1388,
    "MEAN_ANOMALY": 268.9742,
    "EPHEMERIS_TYPE": 0,
    "CLASSIFICATION_TYPE": "U",
    "NORAD_CAT_ID": 51120,
    "ELEMENT_SET_NO": 999,
    "REV_AT_EPOCH": 21091,
    "BSTAR": 0.00011367,
    "MEAN_MOTION_DOT": 1.522e-05,
    "MEAN_MOTION_DDOT": 0.0,
    "TLE_LINE1": "1 51120U 22005S   25314.68867671  .00001522  00000+0  11367-3 0  9992",
    "TLE_LINE2": "2 51120  53.2155 103.3446 0001197  91.1388 268.9742 15.08845596210913",
    "COMMENT": "Grouped by shell and plane from TLE"
  }
]